STARLINK-32330          
1 61850U 24202F   26068.50550716  .00000238  00000+0  18173-4 0  9997
2 61850  42.9996 238.6698 0001587 280.5602  79.5070 15.27571750 75311
FLOCK 4G-27             
1 62641U 25009AJ  26068.75406453  .00012587  00000+0  47455-3 0  9991
2 62641  97.3976 150.8631 0000756 322.4974  37.6212 15.27199247 63710
